{
  "type": "FeatureCollection",
  "features": [
    {
      "type": "Feature",
      "properties": {
        "norad_id": 65729,
        "name": "DRAGONFLY",
        "group": "stations",
        "lat": -22.854190330964915,
        "lon": 145.8771391877881,
        "alt_km": 363.44636294685006,
        "timestamp": "2025-12-06T22:38:41.528980+00:00",
        "meta_object_name": "DRAGONFLY",
        "meta_object_id": "1998-067XH",
        "meta_epoch": "2025-12-05T22:19:10.752384",
        "meta_mean_motion": 15.69233632,
        "meta_eccentricity": 0.00065123,
        "meta_inclination": 51.6246,
        "meta_ra_of_asc_node": 170.5624,
        "meta_arg_of_pericenter": 233.7397,
        "meta_mean_anomaly": 126.2998,
        "meta_ephemeris_type": 0,
        "meta_classification_type": "U",
        "meta_norad_cat_id": 65729,
        "meta_element_set_no": 999,
        "meta_rev_at_epoch": 1209,
        "meta_bstar": 0.0014111437,
        "meta_mean_motion_dot": 0.00170954,
        "meta_mean_motion_ddot": 0,
        "tle_line1": "1 65729U 98067XH  25339.92998556  .00170954  00000+0  14111-2 0  9999",
        "tle_line2": "2 65729  51.6246 170.5624 0006512 233.7397 126.2998 15.69233632 12097"
      },
      "geometry": {
        "type": "Point",
        "coordinates": [
          145.8771391877881,
          -22.854190330964915
        ]
      }
    },
    {
      "type": "Feature",
      "properties": {
        "norad_id": 65731,
        "name": "1998-067XK",
        "group": "stations",
        "lat": 46.05710616024493,
        "lon": -68.69609883806787,
        "alt_km": 369.22275218877803,
        "timestamp": "2025-12-06T22:38:41.528991+00:00",
        "meta_object_name": "1998-067XK",
        "meta_object_id": "1998-067XK",
        "meta_epoch": "2025-12-06T12:57:48.469248",
        "meta_mean_motion": 15.64257956,
        "meta_eccentricity": 0.00056029,
        "meta_inclination": 51.6274,
        "meta_ra_of_asc_node": 168.6505,
        "meta_arg_of_pericenter": 208.5156,
        "meta_mean_anomaly": 151.5533,
        "meta_ephemeris_type": 0,
        "meta_classification_type": "U",
        "meta_norad_cat_id": 65731,
        "meta_element_set_no": 999,
        "meta_rev_at_epoch": 1217,
        "meta_bstar": 0.0012478559,
        "meta_mean_motion_dot": 0.00122759,
        "meta_mean_motion_ddot": 0,
        "tle_line1": "1 65731U 98067XK  25340.54014432  .00122759  00000+0  12479-2 0  9999",
        "tle_line2": "2 65731  51.6274 168.6505 0005602 208.5156 151.5533 15.64257956 12174"
      },
      "geometry": {
        "type": "Point",
        "coordinates": [
          -68.69609883806787,
          46.05710616024493
        ]
      }
    },
    {
      "type": "Feature",
      "properties": {
        "norad_id": 65732,
        "name": "RSP-03",
        "group": "stations",
        "lat": 23.058432913992423,
        "lon": -174.26224410708986,
        "alt_km": 369.56412463331526,
        "timestamp": "2025-12-06T22:38:41.529001+00:00",
        "meta_object_name": "RSP-03",
        "meta_object_id": "1998-067XL",
        "meta_epoch": "2025-12-06T13:19:57.149184",
        "meta_mean_motion": 15.66703439,
        "meta_eccentricity": 0.00063103,
        "meta_inclination": 51.6248,
        "meta_ra_of_asc_node": 167.9959,
        "meta_arg_of_pericenter": 211.4337,
        "meta_mean_anomaly": 148.6282,
        "meta_ephemeris_type": 0,
        "meta_classification_type": "U",
        "meta_norad_cat_id": 65732,
        "meta_element_set_no": 999,
        "meta_rev_at_epoch": 1219,
        "meta_bstar": 0.0014055646,
        "meta_mean_motion_dot": 0.00153185,
        "meta_mean_motion_ddot": 0,
        "tle_line1": "1 65732U 98067XL  25340.55552256  .00153185  00000+0  14056-2 0  9992",
        "tle_line2": "2 65732  51.6248 167.9959 0006310 211.4337 148.6282 15.66703439 12196"
      },
      "geometry": {
        "type": "Point",
        "coordinates": [
          -174.26224410708986,
          23.058432913992423
        ]
      }
    },
    {
      "type": "Feature",
      "properties": {
        "norad_id": 65733,
        "name": "GHS-01",
        "group": "stations",
        "lat": -7.716558881022461,
        "lon": -8.896700597540944,
        "alt_km": 352.0368589314412,
        "timestamp": "2025-12-06T22:38:41.529011+00:00",
        "meta_object_name": "GHS-01",
        "meta_object_id": "1998-067XM",
        "meta_epoch": "2025-12-06T14:12:41.079168",
        "meta_mean_motion": 15.71789944,
        "meta_eccentricity": 0.0006907,
        "meta_inclination": 51.6264,
        "meta_ra_of_asc_node": 166.7395,
        "meta_arg_of_pericenter": 238.9064,
        "meta_mean_anomaly": 121.1257,
        "meta_ephemeris_type": 0,
        "meta_classification_type": "U",
        "meta_norad_cat_id": 65733,
        "meta_element_set_no": 999,
        "meta_rev_at_epoch": 1221,
        "meta_bstar": 0.0018513732,
        "meta_mean_motion_dot": 0.00252273,
        "meta_mean_motion_ddot": 0,
        "tle_line1": "1 65733U 98067XM  25340.59214212  .00252273  00000+0  18514-2 0  9995",
        "tle_line2": "2 65733  51.6264 166.7395 0006907 238.9064 121.1257 15.71789944 12211"
      },
      "geometry": {
        "type": "Point",
        "coordinates": [
          -8.896700597540944,
          -7.716558881022461
        ]
      }
    },
    {
      "type": "Feature",
      "properties": {
        "norad_id": 65941,
        "name": "YOTSUBA-KULOVER",
        "group": "stations",
        "lat": 0.910376221271195,
        "lon": 169.8073878228422,
        "alt_km": 394.10533051239327,
        "timestamp": "2025-12-06T22:38:41.529022+00:00",
        "meta_object_name": "YOTSUBA-KULOVER",
        "meta_object_id": "1998-067XN",
        "meta_epoch": "2025-12-05T22:00:54.491904",
        "meta_mean_motion": 15.58286182,
        "meta_eccentricity": 0.00020197,
        "meta_inclination": 51.6277,
        "meta_ra_of_asc_node": 174.238,
        "meta_arg_of_pericenter": 187.9006,
        "meta_mean_anomaly": 172.1955,
        "meta_ephemeris_type": 0,
        "meta_classification_type": "U",
        "meta_norad_cat_id": 65941,
        "meta_element_set_no": 999,
        "meta_rev_at_epoch": 879,
        "meta_bstar": 0.0010118942,
        "meta_mean_motion_dot": 0.0007842,
        "meta_mean_motion_ddot": 0,
        "tle_line1": "1 65941U 98067XN  25339.91729736  .00078420  00000+0  10119-2 0  9995",
        "tle_line2": "2 65941  51.6277 174.2380 0002019 187.9006 172.1955 15.58286182  8793"
      },
      "geometry": {
        "type": "Point",
        "coordinates": [
          169.8073878228422,
          0.910376221271195
        ]
      }
    },
    {
      "type": "Feature",
      "properties": {
        "norad_id": 65942,
        "name": "BOTAN",
        "group": "stations",
        "lat": -51.232061271280365,
        "lon": 69.17508882074802,
        "alt_km": 387.51867839318766,
        "timestamp": "2025-12-06T22:38:41.529032+00:00",
        "meta_object_name": "BOTAN",
        "meta_object_id": "1998-067XP",
        "meta_epoch": "2025-12-05T19:24:08.395200",
        "meta_mean_motion": 15.6107927,
        "meta_eccentricity": 0.00040957,
        "meta_inclination": 51.6268,
        "meta_ra_of_asc_node": 174.2609,
        "meta_arg_of_pericenter": 186.092,
        "meta_mean_anomaly": 174.0025,
        "meta_ephemeris_type": 0,
        "meta_classification_type": "U",
        "meta_norad_cat_id": 65942,
        "meta_element_set_no": 999,
        "meta_rev_at_epoch": 878,
        "meta_bstar": 0.0014404532,
        "meta_mean_motion_dot": 0.001252,
        "meta_mean_motion_ddot": 0,
        "tle_line1": "1 65942U 98067XP  25339.80843050  .00125200  00000+0  14405-2 0  9991",
        "tle_line2": "2 65942  51.6268 174.2609 0004095 186.0920 174.0025 15.61079270  8789"
      },
      "geometry": {
        "type": "Point",
        "coordinates": [
          69.17508882074802,
          -51.232061271280365
        ]
      }
    },
    {
      "type": "Feature",
      "properties": {
        "norad_id": 65943,
        "name": "E-KAGAKU-1",
        "group": "stations",
        "lat": 1.173276000951224,
        "lon": 170.0181031710502,
        "alt_km": 395.05403231121545,
        "timestamp": "2025-12-06T22:38:41.529042+00:00",
        "meta_object_name": "E-KAGAKU-1",
        "meta_object_id": "1998-067XQ",
        "meta_epoch": "2025-12-05T20:28:25.846752",
        "meta_mean_motion": 15.58235285,
        "meta_eccentricity": 0.00033373,
        "meta_inclination": 51.6291,
        "meta_ra_of_asc_node": 174.5622,
        "meta_arg_of_pericenter": 163.5442,
        "meta_mean_anomaly": 196.5659,
        "meta_ephemeris_type": 0,
        "meta_classification_type": "U",
        "meta_norad_cat_id": 65943,
        "meta_element_set_no": 999,
        "meta_rev_at_epoch": 878,
        "meta_bstar": 0.00098694907,
        "meta_mean_motion_dot": 0.00076316,
        "meta_mean_motion_ddot": 0,
        "tle_line1": "1 65943U 98067XQ  25339.85307693  .00076316  00000+0  98695-3 0  9992",
        "tle_line2": "2 65943  51.6291 174.5622 0003337 163.5442 196.5659 15.58235285  8789"
      },
      "geometry": {
        "type": "Point",
        "coordinates": [
          170.0181031710502,
          1.173276000951224
        ]
      }
    }
  ]
}